[{"OBJECT_NAME":"STARLINK-11242 [DTC]","OBJECT_ID":"2024-154A","EPOCH":"2026-03-09T09:47:30.107040","MEAN_MOTION":15.69705307,"ECCENTRICITY":0.00019556,"INCLINATION":53.1597,"RA_OF_ASC_NODE":132.3998,"ARG_OF_PERICENTER":28.7329,"MEAN_ANOMALY":331.3797,"EPHEMERIS_TYPE":0,"CLASSIFICATION_TYPE":"U","NORAD_CAT_ID":60903,"ELEMENT_SET_NO":999,"REV_AT_EPOCH":8847,"BSTAR":-4.821964e-6,"MEAN_MOTION_DOT":-1.174e-5,"MEAN_MOTION_DDOT":0},{"OBJECT_NAME":"TUSUR GO (RS78S)","OBJECT_ID":"2024-199AZ","EPOCH":"2026-03-09T22:48:41.341536","MEAN_MOTION":15.7089308,"ECCENTRICITY":0.00036127,"INCLINATION":97.3018,"RA_OF_ASC_NODE":306.7757,"ARG_OF_PERICENTER":269.724,"MEAN_ANOMALY":90.3609,"EPHEMERIS_TYPE":0,"CLASSIFICATION_TYPE":"U","NORAD_CAT_ID":61782,"ELEMENT_SET_NO":999,"REV_AT_EPOCH":11926,"BSTAR":0.0013446465,"MEAN_MOTION_DOT":0.00170473,"MEAN_MOTION_DDOT":0}]
